     2              NAVIGATION DATA                         RINEX VERSION / TYPE
CCRINEXN V1.6.0 UX  CDDIS               22-JUL-16 15:33     PGM / RUN BY / DATE 
IGS BROADCAST EPHEMERIS FILE                                COMMENT             
    0.7451D-08  0.1490D-07 -0.5960D-07 -0.1192D-06          ION ALPHA           
    0.9216D+05  0.1311D+06 -0.6554D+05 -0.5243D+06          ION BETA            
   -0.372529029846D-08-0.976996261670D-14   503808     1906 DELTA-UTC: A0,A1,T,W
    17                                                      LEAP SECONDS        
                                                            END OF HEADER       
13 16  7 21 14  0  0.0-0.325799919665D-04-0.250111042988D-11 0.000000000000D+00
    0.660000000000D+02-0.197187500000D+02 0.473055418943D-08-0.103103111756D+01
   -0.107847154141D-05 0.414081010967D-02 0.529736280441D-05 0.515367312050D+04
    0.396000000000D+06-0.502914190292D-07-0.960345925188D+00-0.186264514923D-08
    0.970795034081D+00 0.285906250000D+03 0.199532717172D+01-0.820212736581D-08
   -0.150363406097D-09 0.000000000000D+00 0.190600000000D+04 0.000000000000D+00
    0.200000000000D+01 0.000000000000D+00-0.111758708954D-07 0.660000000000D+02
    0.388800000000D+06 0.400000000000D+01 0.000000000000D+00 0.000000000000D+00
14 16  7 21 14  0  0.0-0.257380306721D-04-0.193267624127D-11 0.000000000000D+00
    0.970000000000D+02-0.156875000000D+02 0.489591822036D-08 0.521911013837D+00
   -0.968575477600D-06 0.888192222919D-02 0.491365790367D-05 0.515403035164D+04
    0.396000000000D+06-0.121071934700D-06-0.997748642842D+00 0.186264514923D-07
    0.963261392183D+00 0.285968750000D+03-0.195961321890D+01-0.838999233400D-08
   -0.183221917643D-09 0.000000000000D+00 0.190600000000D+04 0.000000000000D+00
    0.200000000000D+01 0.000000000000D+00-0.931322574616D-08 0.970000000000D+02
    0.391680000000D+06 0.400000000000D+01 0.000000000000D+00 0.000000000000D+00
15 16  7 21 14  0  0.0-0.320267397910D-03-0.159161572810D-11 0.000000000000D+00
    0.101000000000D+03-0.428125000000D+01 0.571380943167D-08 0.762623773656D-01
   -0.102445483208D-06 0.823148188647D-02 0.417605042458D-05 0.515362045479D+04
    0.396000000000D+06 0.856816768646D-07-0.113586325804D+01 0.102445483208D-06
    0.930058367087D+00 0.282125000000D+03 0.487184698958D+00-0.880786688301D-08
    0.225009372544D-10 0.000000000000D+00 0.190600000000D+04 0.000000000000D+00
    0.200000000000D+01 0.000000000000D+00-0.107102096081D-07 0.101000000000D+03
    0.388800000000D+06 0.400000000000D+01 0.000000000000D+00 0.000000000000D+00
16 16  7 21 14  0  0.0-0.344682484865D-05 0.216004991671D-11 0.000000000000D+00
    0.960000000000D+02 0.116250000000D+03 0.401766735197D-08 0.168719229488D+01
    0.625103712082D-05 0.869932677597D-02 0.704824924469D-05 0.515353707504D+04
    0.396000000000D+06-0.987201929092D-07 0.109188287742D+01 0.223517417908D-06
    0.990683971518D+00 0.261062500000D+03 0.388572229296D+00-0.795068832094D-08
    0.268939773850D-09 0.100000000000D+01 0.190600000000D+04 0.000000000000D+00
    0.200000000000D+01 0.000000000000D+00-0.107102096081D-07 0.960000000000D+02
    0.394410000000D+06 0.400000000000D+01 0.000000000000D+00 0.000000000000D+00
17 16  7 21 14  0  0.0-0.203859992325D-03 0.113686837722D-12 0.000000000000D+00
    0.770000000000D+02-0.431875000000D+02 0.467519489788D-08 0.843953655360D+00
   -0.221841037273D-05 0.110259428620D-01 0.156834721565D-05 0.515371810341D+04
    0.396000000000D+06-0.173225998878D-06 0.211327085739D+01 0.577419996262D-07
    0.976799603281D+00 0.362531250000D+03-0.192675649285D+01-0.863714522126D-08
   -0.330370897306D-09 0.100000000000D+01 0.190600000000D+04 0.000000000000D+00
    0.200000000000D+01 0.000000000000D+00-0.107102096081D-07 0.770000000000D+02
    0.388800000000D+06 0.000000000000D+00 0.000000000000D+00 0.000000000000D+00
18 16  7 21 14  0  0.0 0.538820400834D-03 0.409272615798D-11 0.000000000000D+00
    0.330000000000D+02 0.200000000000D+02 0.501806616545D-08 0.240237232738D+01
    0.998377799988D-06 0.172697087983D-01 0.973232090473D-05 0.515370095635D+04
    0.396000000000D+06 0.212341547012D-06-0.215622815796D+01-0.225380063057D-06
    0.924977932015D+00 0.168093750000D+03-0.186960557486D+01-0.794568811266D-08
    0.589667419158D-09 0.000000000000D+00 0.190600000000D+04 0.000000000000D+00
    0.200000000000D+01 0.000000000000D+00-0.121071934700D-07 0.330000000000D+02
    0.388800000000D+06 0.400000000000D+01 0.000000000000D+00 0.000000000000D+00
19 16  7 21 14  0  0.0-0.524805858731D-03 0.227373675443D-12 0.000000000000D+00
    0.280000000000D+02-0.605000000000D+02 0.467733762832D-08-0.232592721106D+01
   -0.306591391563D-05 0.107288097497D-01 0.989064574242D-06 0.515362513351D+04
    0.396000000000D+06 0.175088644028D-06 0.216192813298D+01-0.577419996262D-07
    0.973957655234D+00 0.365937500000D+03 0.824285624405D+00-0.839999270141D-08
   -0.189293594688D-09 0.100000000000D+01 0.190600000000D+04 0.000000000000D+00
    0.200000000000D+01 0.000000000000D+00-0.149011611938D-07 0.280000000000D+02
    0.388800000000D+06 0.000000000000D+00 0.000000000000D+00 0.000000000000D+00
20 16  7 21 14  0  0.0 0.425522681326D-03 0.216004991671D-11 0.000000000000D+00
    0.190000000000D+02 0.204687500000D+02 0.507092551012D-08 0.755246819062D-02
    0.126101076603D-05 0.457618746441D-02 0.102315098047D-04 0.515376979065D+04
    0.396000000000D+06-0.109896063805D-06-0.220795852558D+01 0.391155481338D-07
    0.926308169276D+00 0.165656250000D+03 0.140266131891D+01-0.826998733531D-08
    0.597524889310D-09 0.000000000000D+00 0.190600000000D+04 0.000000000000D+00
    0.200000000000D+01 0.000000000000D+00-0.838190317154D-08 0.190000000000D+02
    0.388800000000D+06 0.400000000000D+01 0.000000000000D+00 0.000000000000D+00
21 16  7 21 14  0  0.0-0.528840348124D-03-0.795807864051D-12 0.000000000000D+00
    0.280000000000D+02-0.129531250000D+03 0.457447625958D-08-0.295790344572D+01
   -0.664591789246D-05 0.233586227987D-01 0.930391252041D-05 0.515358901978D+04
    0.396000000000D+06 0.290572643280D-06 0.308562840063D+01-0.856816768646D-07
    0.937311093604D+00 0.181937500000D+03-0.177507538980D+01-0.771889295145D-08
   -0.197151069276D-09 0.000000000000D+00 0.190600000000D+04 0.000000000000D+00
    0.200000000000D+01 0.000000000000D+00-0.102445483208D-07 0.280000000000D+02
    0.388800000000D+06 0.400000000000D+01 0.000000000000D+00 0.000000000000D+00
22 16  7 21 14  0  0.0 0.291430857033D-03-0.932232069317D-11 0.000000000000D+00
    0.270000000000D+02 0.358125000000D+02 0.524521848440D-08 0.365233460388D+00
    0.197440385818D-05 0.762566190679D-02 0.968202948570D-05 0.515377145767D+04
    0.396000000000D+06-0.294297933578D-06-0.215569394563D+01 0.260770320892D-07
    0.922897015897D+00 0.175968750000D+03-0.188807304747D+01-0.838106339065D-08
    0.525021869268D-09 0.000000000000D+00 0.190600000000D+04 0.000000000000D+00
    0.200000000000D+01 0.000000000000D+00-0.176951289177D-07 0.270000000000D+02
    0.389160000000D+06 0.400000000000D+01 0.000000000000D+00 0.000000000000D+00
23 16  7 21 14  0  0.0-0.183030031622D-03-0.147792889038D-11 0.000000000000D+00
    0.230000000000D+02-0.123125000000D+02 0.536236622122D-08-0.464329482992D+00
   -0.398606061935D-06 0.111201753607D-01 0.436604022980D-05 0.515363277054D+04
    0.396000000000D+06 0.104308128357D-06-0.107719297382D+01 0.150874257088D-06
    0.945303671921D+00 0.285843750000D+03-0.254825963992D+01-0.864821737582D-08
   -0.417874549009D-10 0.100000000000D+01 0.190600000000D+04 0.000000000000D+00
    0.200000000000D+01 0.000000000000D+00-0.200234353542D-07 0.230000000000D+02
    0.388800000000D+06 0.400000000000D+01 0.000000000000D+00 0.000000000000D+00
24 16  7 21 14  0  0.0-0.205053947866D-04-0.682121026330D-12 0.000000000000D+00
    0.870000000000D+02-0.587500000000D+01 0.470983904084D-08-0.984281131648D+00
   -0.283122062683D-06 0.446594064124D-02 0.113770365715D-04 0.515360991669D+04
    0.396000000000D+06 0.102445483208D-06-0.519126106429D-01-0.838190317154D-07
    0.949180982684D+00 0.153000000000D+03 0.402009234258D+00-0.802926302246D-08
   -0.435732435719D-09 0.000000000000D+00 0.190600000000D+04 0.000000000000D+00
    0.200000000000D+01 0.000000000000D+00 0.232830643654D-08 0.870000000000D+02
    0.388800000000D+06 0.400000000000D+01 0.000000000000D+00 0.000000000000D+00
25 16  7 21 14  0  0.0-0.212491024286D-03-0.693489710102D-11 0.000000000000D+00
    0.880000000000D+02 0.121531250000D+03 0.416231623432D-08-0.310267404852D+01
    0.620074570179D-05 0.561532820575D-02 0.769086182117D-05 0.515372656059D+04
    0.396000000000D+06-0.465661287308D-07 0.102151172675D+01-0.180676579475D-06
    0.978412662106D+00 0.238593750000D+03 0.795652443787D+00-0.786961351528D-08
    0.321441960777D-09 0.000000000000D+00 0.190600000000D+04 0.000000000000D+00
    0.200000000000D+01 0.000000000000D+00 0.558793544769D-08 0.880000000000D+02
    0.388800000000D+06 0.400000000000D+01 0.000000000000D+00 0.000000000000D+00
26 16  7 21 14  0  0.0-0.428910832852D-03-0.966338120634D-11 0.000000000000D+00
    0.120000000000D+02 0.115656250000D+03 0.461554939902D-08 0.240427604608D+01
    0.610016286373D-05 0.994426431134D-03 0.720657408237D-05 0.515379753876D+04
    0.396000000000D+06-0.931322574615D-07 0.101157539698D+01 0.540167093277D-07
    0.960363718661D+00 0.241125000000D+03 0.163128350699D+00-0.814891086342D-08
    0.340728478423D-09 0.000000000000D+00 0.190600000000D+04 0.000000000000D+00
    0.200000000000D+01 0.000000000000D+00 0.698491930962D-08 0.120000000000D+02
    0.394950000000D+06 0.400000000000D+01 0.000000000000D+00 0.000000000000D+00
